{
  "type": "FeatureCollection",
  "features": [
    {
      "type": "Feature",
      "properties": {
        "norad_id": 37781,
        "name": "HAIYANG-2A",
        "group": "resource",
        "lat": -38.620635419984225,
        "lon": 10.189270115922557,
        "alt_km": 974.5872115755974,
        "timestamp": "2025-12-27T22:26:48.269839+00:00",
        "meta_object_name": "HAIYANG-2A",
        "meta_object_id": "2011-043A",
        "meta_epoch": "2025-12-27T12:11:15.033696",
        "meta_mean_motion": 13.78836139,
        "meta_eccentricity": 0.0001568,
        "meta_inclination": 99.3384,
        "meta_ra_of_asc_node": 2.2149,
        "meta_arg_of_pericenter": 63.363,
        "meta_mean_anomaly": 296.7682,
        "meta_ephemeris_type": 0,
        "meta_classification_type": "U",
        "meta_norad_cat_id": 37781,
        "meta_element_set_no": 999,
        "meta_rev_at_epoch": 72302,
        "meta_bstar": 3.4013e-06,
        "meta_mean_motion_dot": -4.1e-07,
        "meta_mean_motion_ddot": 0,
        "tle_line1": "1 37781U 11043A   25361.50781289 -.00000041  00000+0  34013-5 0  9993",
        "tle_line2": "2 37781  99.3384   2.2149 0001568  63.3630 296.7682 13.78836139723026"
      },
      "geometry": {
        "type": "Point",
        "coordinates": [
          10.189270115922557,
          -38.620635419984225
        ]
      }
    },
    {
      "type": "Feature",
      "properties": {
        "norad_id": 37791,
        "name": "RASAT",
        "group": "resource",
        "lat": -79.02449549622881,
        "lon": -136.00337974614868,
        "alt_km": 681.6167590117657,
        "timestamp": "2025-12-27T22:26:48.269849+00:00",
        "meta_object_name": "RASAT",
        "meta_object_id": "2011-044D",
        "meta_epoch": "2025-12-27T13:20:03.374304",
        "meta_mean_motion": 14.67930277,
        "meta_eccentricity": 0.0021177,
        "meta_inclination": 98.0636,
        "meta_ra_of_asc_node": 90.5928,
        "meta_arg_of_pericenter": 20.0542,
        "meta_mean_anomaly": 37.4135,
        "meta_ephemeris_type": 0,
        "meta_classification_type": "U",
        "meta_norad_cat_id": 37791,
        "meta_element_set_no": 999,
        "meta_rev_at_epoch": 76800,
        "meta_bstar": 0.00014779,
        "meta_mean_motion_dot": 7.99e-06,
        "meta_mean_motion_ddot": 0,
        "tle_line1": "1 37791U 11044D   25361.55559461  .00000799  00000+0  14779-3 0  9999",
        "tle_line2": "2 37791  98.0636  90.5928 0021177  20.0542  37.4135 14.67930277768005"
      },
      "geometry": {
        "type": "Point",
        "coordinates": [
          -136.00337974614868,
          -79.02449549622881
        ]
      }
    },
    {
      "type": "Feature",
      "properties": {
        "norad_id": 37841,
        "name": "SRMSAT",
        "group": "resource",
        "lat": 16.600173862476208,
        "lon": 71.15239417738994,
        "alt_km": 845.4932810106156,
        "timestamp": "2025-12-27T22:26:48.269859+00:00",
        "meta_object_name": "SRMSAT",
        "meta_object_id": "2011-058D",
        "meta_epoch": "2025-12-27T08:44:04.528320",
        "meta_mean_motion": 14.11516495,
        "meta_eccentricity": 0.0011975,
        "meta_inclination": 19.9733,
        "meta_ra_of_asc_node": 19.4452,
        "meta_arg_of_pericenter": 113.2094,
        "meta_mean_anomaly": 274.2222,
        "meta_ephemeris_type": 0,
        "meta_classification_type": "U",
        "meta_norad_cat_id": 37841,
        "meta_element_set_no": 999,
        "meta_rev_at_epoch": 73351,
        "meta_bstar": 0.00010535,
        "meta_mean_motion_dot": 4.59e-06,
        "meta_mean_motion_ddot": 0,
        "tle_line1": "1 37841U 11058D   25361.36394130  .00000459  00000+0  10535-3 0  9998",
        "tle_line2": "2 37841  19.9733  19.4452 0011975 113.2094 274.2222 14.11516495733512"
      },
      "geometry": {
        "type": "Point",
        "coordinates": [
          71.15239417738994,
          16.600173862476208
        ]
      }
    },
    {
      "type": "Feature",
      "properties": {
        "norad_id": 38012,
        "name": "PLEIADES 1A",
        "group": "resource",
        "lat": -81.34149763595106,
        "lon": -176.36950054161838,
        "alt_km": 705.843755912023,
        "timestamp": "2025-12-27T22:26:48.269869+00:00",
        "meta_object_name": "PLEIADES 1A",
        "meta_object_id": "2011-076F",
        "meta_epoch": "2025-12-27T11:55:14.613024",
        "meta_mean_motion": 14.58576101,
        "meta_eccentricity": 0.0001046,
        "meta_inclination": 98.1801,
        "meta_ra_of_asc_node": 74.0362,
        "meta_arg_of_pericenter": 76.4624,
        "meta_mean_anomaly": 49.1164,
        "meta_ephemeris_type": 0,
        "meta_classification_type": "U",
        "meta_norad_cat_id": 38012,
        "meta_element_set_no": 999,
        "meta_rev_at_epoch": 74696,
        "meta_bstar": 0.00017669,
        "meta_mean_motion_dot": 7.76e-06,
        "meta_mean_motion_ddot": 0,
        "tle_line1": "1 38012U 11076F   25361.49669691  .00000776  00000+0  17669-3 0  9997",
        "tle_line2": "2 38012  98.1801  74.0362 0001046  76.4624  49.1164 14.58576101746960"
      },
      "geometry": {
        "type": "Point",
        "coordinates": [
          -176.36950054161838,
          -81.34149763595106
        ]
      }
    },
    {
      "type": "Feature",
      "properties": {
        "norad_id": 38038,
        "name": "ZIYUAN 1-02C (ZY 1-02C)",
        "group": "resource",
        "lat": 46.447870731360524,
        "lon": -103.35758043740248,
        "alt_km": 756.4393678201759,
        "timestamp": "2025-12-27T22:26:48.269879+00:00",
        "meta_object_name": "ZIYUAN 1-02C (ZY 1-02C)",
        "meta_object_id": "2011-079A",
        "meta_epoch": "2025-12-27T12:23:31.628256",
        "meta_mean_motion": 14.38029738,
        "meta_eccentricity": 0.0007582,
        "meta_inclination": 98.4309,
        "meta_ra_of_asc_node": 67.2562,
        "meta_arg_of_pericenter": 99.8973,
        "meta_mean_anomaly": 25.2933,
        "meta_ephemeris_type": 0,
        "meta_classification_type": "U",
        "meta_norad_cat_id": 38038,
        "meta_element_set_no": 999,
        "meta_rev_at_epoch": 73453,
        "meta_bstar": 0.00029664,
        "meta_mean_motion_dot": 8.55e-06,
        "meta_mean_motion_ddot": 0,
        "tle_line1": "1 38038U 11079A   25361.51633829  .00000855  00000+0  29664-3 0  9991",
        "tle_line2": "2 38038  98.4309  67.2562 0007582  99.8973  25.2933 14.38029738734533"
      },
      "geometry": {
        "type": "Point",
        "coordinates": [
          -103.35758043740248,
          46.447870731360524
        ]
      }
    },
    {
      "type": "Feature",
      "properties": {
        "norad_id": 38338,
        "name": "ARIRANG-3 (KOMPSAT-3)",
        "group": "resource",
        "lat": -22.736051213739646,
        "lon": -39.83715523204903,
        "alt_km": 691.0523891621951,
        "timestamp": "2025-12-27T22:26:48.269889+00:00",
        "meta_object_name": "ARIRANG-3 (KOMPSAT-3)",
        "meta_object_id": "2012-025B",
        "meta_epoch": "2025-12-27T12:41:40.183584",
        "meta_mean_motion": 14.61732352,
        "meta_eccentricity": 0.0004632,
        "meta_inclination": 98.3343,
        "meta_ra_of_asc_node": 316.2315,
        "meta_arg_of_pericenter": 284.7561,
        "meta_mean_anomaly": 75.3126,
        "meta_ephemeris_type": 0,
        "meta_classification_type": "U",
        "meta_norad_cat_id": 38338,
        "meta_element_set_no": 999,
        "meta_rev_at_epoch": 72626,
        "meta_bstar": 0.00015082,
        "meta_mean_motion_dot": 7.03e-06,
        "meta_mean_motion_ddot": 0,
        "tle_line1": "1 38338U 12025B   25361.52893731  .00000703  00000+0  15082-3 0  9998",
        "tle_line2": "2 38338  98.3343 316.2315 0004632 284.7561  75.3126 14.61732352726267"
      },
      "geometry": {
        "type": "Point",
        "coordinates": [
          -39.83715523204903,
          -22.736051213739646
        ]
      }
    },
    {
      "type": "Feature",
      "properties": {
        "norad_id": 38709,
        "name": "EXACTVIEW-1 (ADS-1B)",
        "group": "resource",
        "lat": 54.25222748322893,
        "lon": -56.68944626594692,
        "alt_km": 810.8148002190528,
        "timestamp": "2025-12-27T22:26:48.269900+00:00",
        "meta_object_name": "EXACTVIEW-1 (ADS-1B)",
        "meta_object_id": "2012-039C",
        "meta_epoch": "2025-12-27T06:41:45.184416",
        "meta_mean_motion": 14.24913949,
        "meta_eccentricity": 0.0010047,
        "meta_inclination": 98.964,
        "meta_ra_of_asc_node": 109.9743,
        "meta_arg_of_pericenter": 310.2244,
        "meta_mean_anomaly": 49.8055,
        "meta_ephemeris_type": 0,
        "meta_classification_type": "U",
        "meta_norad_cat_id": 38709,
        "meta_element_set_no": 999,
        "meta_rev_at_epoch": 69822,
        "meta_bstar": 9.8874e-05,
        "meta_mean_motion_dot": 1.85e-06,
        "meta_mean_motion_ddot": 0,
        "tle_line1": "1 38709U 12039C   25361.27899519  .00000185  00000+0  98874-4 0  9992",
        "tle_line2": "2 38709  98.9640 109.9743 0010047 310.2244  49.8055 14.24913949698220"
      },
      "geometry": {
        "type": "Point",
        "coordinates": [
          -56.68944626594692,
          54.25222748322893
        ]
      }
    }
  ]
}